satname,norad_id,inclination_deg,eccentricity,mean_motion_rev_per_day,perigee_km,apogee_km,l1,l2
STARLINK-1169,45061,53.0533,0.0001175,15.06366782,546.4996277766177,548.1271086131428,1 45061U 20006T   25275.32937025  .00021389  00000+0  14517-2 0  9998,2 45061  53.0533 277.5304 0001175  90.7204 269.3920 15.06366782312596
STARLINK-1171,45062,53.0515,0.0001037,15.06369094,546.5881135281579,548.0244504648444,1 45062U 20006U   25275.38096715 -.00006047  00000+0 -38775-3 0  9996,2 45062  53.0515 277.2924 0001037  94.8010 265.3098 15.06369094312602
STARLINK-1133,45064,53.0531,0.0001426,15.06390218,546.2539795420544,548.2290975012402,1 45064U 20006W   25275.65924764 -.00000695  00000+0 -27773-4 0  9992,2 45064  53.0531 256.0420 0001426 100.5438 259.5712 15.06390218312924
STARLINK-1150,45067,53.0383,0.0004189,16.14979905,230.44772214886416,235.98671471306625,1 45067U 20006Z   25276.01724914  .01377010  14303-2  10353-2 0  9996,2 45067  53.0383 191.7496 0004189 227.3376 132.7307 16.14979905313859
STARLINK-1167,45071,53.053,0.0001477,15.06406509,546.168737827049,548.2144798981071,1 45071U 20006AD  25275.35330551  .00001928  00000+0  14825-3 0  9993,2 45071  53.0530 257.4192 0001477  83.8877 276.2280 15.06406509312879
STARLINK-1168,45072,53.0532,0.0001373,15.06377008,546.3311659708406,548.2328860353819,1 45072U 20006AE  25275.42334020 -.00008558  00000+0 -55667-3 0  9994,2 45072  53.0532 257.1050 0001373  93.4901 266.6245 15.06377008312888
STARLINK-1172,45074,53.0541,0.0001614,15.0640754,546.070701493154,548.3061965480983,1 45074U 20006AG  25275.36804855  .00003398  00000+0  24686-3 0  9999,2 45074  53.0541 257.3541 0001614  94.5509 265.5664 15.06407540312878
STARLINK-1153,45080,53.0511,0.0001382,15.06409468,546.225460873472,548.1396191943386,1 45080U 20006AN  25275.67767852 -.00000460  00000+0 -12011-4 0  9994,2 45080  53.0511 255.9635 0001382 104.8042 255.3100 15.06409468312928
STARLINK-1151,45081,53.0531,0.0001395,15.06394687,546.2617531705264,548.1939299613232,1 45081U 20006AP  25275.66294286  .00001112  00000+0  93568-4 0  9999,2 45081  53.0531 256.1025 0001395  94.6697 265.4452 15.06394687312921
STARLINK-1190,45083,53.0451,0.0007719,15.77148956,333.3384321497497,343.7076118917448,1 45083U 20006AR  25275.66668980  .00266527  00000+0  15506-2 0  9994,2 45083  53.0451 222.6613 0007719  80.5102 240.2077 15.77148956  5990
STARLINK-1173,45084,53.0429,0.0005496,15.8992573,298.81922615092026,306.16257233777014,1 45084U 20006AS  25275.66668980  .00417560  76209-4  13762-2 0  9991,2 45084  53.0429 185.6716 0005496  68.1499 204.9261 15.89925730  5807
STARLINK-1179,45085,53.0318,0.0002679,16.1811594,222.90335050911654,226.44113570157242,1 45085U 20006AT  25275.73871221  .01919025  40093-2  12061-2 0  9999,2 45085  53.0318 174.2578 0002679 219.2604 140.8239 16.18115940314074
STARLINK-1185,45087,53.0526,0.0001556,15.06405716,546.1164577672162,548.2716207866388,1 45087U 20006AV  25275.17455003  .00016129  00000+0  10990-2 0  9997,2 45087  53.0526 238.2187 0001556  79.0009 281.1155 15.06405716313139
STARLINK-1183,45088,53.0509,0.0001521,15.06391469,546.1843548554498,548.2910538405122,1 45088U 20006AW  25275.59474484  .00006523  00000+0  45648-3 0  9994,2 45088  53.0509 236.3326 0001521  74.6376 285.4780 15.06391469313191
STARLINK-1176,45090,53.0484,0.0002481,15.87212727,308.4421230569551,311.7608269882612,1 45090U 20006AY  25275.66668980  .01149525  00000+0  38536-2 0  9999,2 45090  53.0484 183.6128 0002481  59.3579 267.5257 15.87212727  6008
STARLINK-1142,45093,53.0365,0.0005542,15.53223159,403.56210841594566,411.0831118478163,1 45093U 20006BB  25275.66668980  .00199816  00000+0  30514-2 0  9997,2 45093  53.0365 179.6907 0005542 123.9042  44.4437 15.53223159  5873
STARLINK-1146,45094,53.0364,0.0004403,16.25270284,202.38253551628623,208.17989359602325,1 45094U 20006BC  25275.84666998  .02968245  11944-4  97100-3 0  9996,2 45094  53.0364 174.5121 0004403 215.1487 144.9263 16.25270284314087
STARLINK-1147,45095,53.0375,0.0002943,16.01487296,268.3426243105396,272.2558938926459,1 45095U 20006BD  25275.69110345  .00613422  18232-3  10778-2 0  9993,2 45095  53.0375 179.2288 0002943  84.5734 275.5631 16.01487296314005
STARLINK-1152,45096,53.046,0.0007832,15.22079661,494.1820487835121,504.95528694165205,1 45096U 20006BE  25275.58445970  .00116704  00000+0  49660-2 0  9990,2 45096  53.0460 221.9485 0007832  81.4237 278.7645 15.22079661313397
STARLINK-1184,45098,53.0549,0.0001461,15.06398061,546.2057064078326,548.2292949929379,1 45098U 20006BG  25275.27775441  .00003732  00000+0  26929-3 0  9997,2 45098  53.0549 237.7590 0001461  93.5895 266.5261 15.06398061313147
STARLINK-1193,45100,53.0527,0.000149,15.06379415,546.2427623812828,548.3065350526003,1 45100U 20006BJ  25275.60579817 -.00002603  00000+0 -15602-3 0  9991,2 45100  53.0527 236.2835 0001490  94.9999 265.1160 15.06379415313195
STARLINK-1143,45179,53.0568,0.0004399,15.3605552,454.77998276676317,460.7942287950291,1 45179U 20012B   25275.54090597  .00102948  00000+0  28607-2 0  9999,2 45179  53.0568   6.7805 0004399 277.3533  82.6969 15.36055520311429
STARLINK-1202,45183,53.0547,0.0001408,15.0638747,546.2748663657303,548.2250553339063,1 45183U 20012F   25275.66846779  .00021585  00000+0  14640-2 0  9997,2 45183  53.0547  36.0041 0001408  83.1888 276.9261 15.06387470311021
STARLINK-1216,45185,53.0546,0.0001351,15.06386626,546.3169274974434,548.1881677532119,1 45185U 20012H   25275.66109203 -.00000185  00000+0  64712-5 0  9995,2 45185  53.0546  36.0342 0001351  97.7949 262.3193 15.06386626310969
STARLINK-1225,45187,53.0544,0.0001577,15.06387414,546.157998933345,548.3422660349297,1 45187U 20012K   25275.67952453 -.00001224  00000+0 -63291-4 0  9997,2 45187  53.0544  35.9530 0001577  94.1754 265.9415 15.06387414311010
STARLINK-1230,45189,53.0559,0.0001459,15.06394178,546.2189906292333,548.2398125452155,1 45189U 20012M   25275.61686331 -.00001833  00000+0 -10421-3 0  9994,2 45189  53.0559  36.2355 0001459  95.6116 264.5039 15.06394178308236
STARLINK-1234,45190,53.0557,0.0001894,15.06372335,545.9846714002333,548.6080255526367,1 45190U 20012N   25275.50260330  .00001439  00000+0  11559-3 0  9994,2 45190  53.0557 356.7459 0001894 108.4043 251.7152 15.06372335311459
STARLINK-1269,45197,53.0559,0.0001269,15.06390837,546.3608110601281,548.1184716517037,1 45197U 20012V   25275.62791792  .00002628  00000+0  19527-3 0  9999,2 45197  53.0559  36.1898 0001269  86.5807 273.5327 15.06390837310984
STARLINK-1154,45198,53.0565,0.000174,15.06373089,546.0890125047345,548.4990625057853,1 45198U 20012W   25275.55236360  .00002023  00000+0  15479-3 0  9998,2 45198  53.0565  16.5240 0001740  88.9838 271.1351 15.06373089311228
STARLINK-1199,45201,53.0562,0.0001447,15.06378349,546.2758083914123,548.2800234680826,1 45201U 20012Z   25275.56342356  .00001706  00000+0  13347-3 0  9996,2 45201  53.0562  16.4771 0001447  98.9049 261.2103 15.06378349311282
STARLINK-1208,45205,53.0269,0.0004435,16.37503308,169.54730225682306,175.35767513329574,1 45205U 20012AD  25275.44876895  .07516339  12250-4  73500-3 0  9999,2 45205  53.0269 314.2660 0004435 232.6239 127.4403 16.37503308312168
STARLINK-1209,45206,53.0553,0.0001445,15.0636478,546.3187758039803,548.320232733713,1 45206U 20012AE  25275.50628983  .00025454  00000+0  17232-2 0  9990,2 45206  53.0553 356.7349 0001445 108.1385 251.9761 15.06364780310608
STARLINK-1210,45207,53.0288,0.0012633,15.49445925,409.7598511989954,426.9318447627038,1 45207U 20012AF  25275.41236611  .00105421  00000+0  18636-2 0  9996,2 45207  53.0288 326.6602 0012633 306.7913  53.1934 15.49445925311979
STARLINK-1231,45212,53.0526,0.0002674,15.10116848,533.994527310886,537.6921239890435,1 45212U 20012AL  25275.60300355  .00047651  00000+0  28888-2 0  9990,2 45212  53.0526  15.5897 0002674 268.3598  91.7086 15.10116848311250
STARLINK-1271,45217,53.0555,0.0001589,15.06385491,546.1555813386385,548.3564712423922,1 45217U 20012AR  25275.61501969 -.00001238  00000+0 -64247-4 0  9994,2 45217  53.0555  16.2423 0001589 104.0474 256.0692 15.06385491311293
STARLINK-1191,45222,53.0541,0.0001589,15.06374086,546.1905312482586,548.3914322608589,1 45222U 20012AW  25275.49155855 -.00001472  00000+0 -79982-4 0  9997,2 45222  53.0541 356.7988 0001589  96.0453 264.0717 15.06374086311553
STARLINK-1212,45223,53.0566,0.0001618,15.06375531,546.1660193833768,548.4070864451005,1 45223U 20012AX  25275.51005911 -.00003373  00000+0 -20776-3 0  9996,2 45223  53.0566 357.3695 0001618  97.3937 262.7235 15.06375531311553
STARLINK-1215,45225,53.0562,0.000149,15.06376572,546.2514746806464,548.315249948615,1 45225U 20012AZ  25275.59844490 -.00003505  00000+0 -21664-3 0  9993,2 45225  53.0562 356.3204 0001490 112.7884 247.3262 15.06376572311529
STARLINK-1217,45226,53.0406,0.0002207,15.96875586,281.62324317696493,284.56351026525044,1 45226U 20012BA  25275.66668980  .00433077  88072-4  98955-3 0  9996,2 45226  53.0406 299.8925 0002207  16.9982 166.6291 15.96875586  5768
STARLINK-1221,45227,53.0693,0.0002151,15.35526803,457.88544764243306,460.82693721381565,1 45227U 20012BB  25274.39149023  .00026735  00000+0  77144-3 0  9994,2 45227  53.0693 300.8263 0002151 220.3497 139.7345 15.35526803312181
STARLINK-1222,45228,53.055,0.0001496,15.06368803,546.2711274518151,548.3432203486464,1 45228U 20012BC  25275.49892574  .00037863  00000+0  25493-2 0  9996,2 45228  53.0550 356.7621 0001496  95.1167 264.9993 15.06368803311445
STARLINK-1226,45229,53.0555,0.0001218,15.06361944,546.4846748917953,548.1717182136754,1 45229U 20012BD  25275.59475808  .00010986  00000+0  75602-3 0  9990,2 45229  53.0555 356.3330 0001218  84.3248 275.7880 15.06361944311462
STARLINK-1227,45230,53.0549,0.0001554,15.06380097,546.1963497929692,548.3487670837312,1 45230U 20012BE  25275.59107235  .00000069  00000+0  23546-4 0  9990,2 45230  53.0549 356.3511 0001554 103.2978 256.8184 15.06380097311582
